[{"OBJECT_NAME":"UMBRA-12","OBJECT_ID":"2026-004J","EPOCH":"2026-03-09T23:28:09.251904","MEAN_MOTION":14.88319852,"ECCENTRICITY":0.00079128,"INCLINATION":97.8019,"RA_OF_ASC_NODE":69.1965,"ARG_OF_PERICENTER":97.182,"MEAN_ANOMALY":263.0297,"EPHEMERIS_TYPE":0,"CLASSIFICATION_TYPE":"U","NORAD_CAT_ID":67371,"ELEMENT_SET_NO":999,"REV_AT_EPOCH":854,"BSTAR":0.00076492026,"MEAN_MOTION_DOT":7.029e-5,"MEAN_MOTION_DDOT":0},{"OBJECT_NAME":"AETHER-3","OBJECT_ID":"2026-004M","EPOCH":"2026-03-09T23:26:44.657664","MEAN_MOTION":14.88016914,"ECCENTRICITY":0.00060353,"INCLINATION":97.7999,"RA_OF_ASC_NODE":69.1839,"ARG_OF_PERICENTER":95.6226,"MEAN_ANOMALY":264.5679,"EPHEMERIS_TYPE":0,"CLASSIFICATION_TYPE":"U","NORAD_CAT_ID":67374,"ELEMENT_SET_NO":999,"REV_AT_EPOCH":854,"BSTAR":0.00028717597,"MEAN_MOTION_DOT":2.583e-5,"MEAN_MOTION_DDOT":0}]
