UMBRA-12                
1 67371U 26004J   26068.97788486  .00007029  00000+0  76492-3 0  9993
2 67371  97.8019  69.1965 0007913  97.1820 263.0297 14.88319852  8548
AETHER-3                
1 67374U 26004M   26068.97690575  .00002583  00000+0  28718-3 0  9995
2 67374  97.7999  69.1839 0006035  95.6226 264.5679 14.88016914  8547
